start=new Date('2023-05-08T00:00:00.000Z').valueOf();
sats=[{"EPOCH":"2023-05-07T13:49:21.594432","SITE":"AFETR","TIME_SYSTEM":"UTC","EPHEMERIS_TYPE":"0","SEMIMAJOR_AXIS":"6917.841","MEAN_MOTION_DOT":"0.00003602","RCS_SIZE":"LARGE","REV_AT_EPOCH":"3801","LAUNCH_DATE":"2022-09-05","OBJECT_TYPE":"PAYLOAD","REF_FRAME":"TEME","TLE_LINE2":"2 53734  53.2144 229.9757 0001189  94.1393 265.9735 15.08852928 38019","ARG_OF_PERICENTER":"94.1393","APOAPSIS":"540.528","ECCENTRICITY":"0.00011890","INCLINATION":"53.2144","COUNTRY_CODE":"US","OBJECT_ID":"2022-107AL","OBJECT_NAME":"STARLINK-4616","PERIOD":"95.437","CENTER_NAME":"EARTH","TLE_LINE1":"1 53734U 22107AL  23127.57594438  .00003602  00000-0  24421-3 0  9991","MEAN_ELEMENT_THEORY":"SGP4","MEAN_MOTION_DDOT":"0.0000000000000","FILE":"3903215","MEAN_ANOMALY":"265.9735","BSTAR":"0.00024421000000","DECAY_DATE":null,"RA_OF_ASC_NODE":"229.9757","NORAD_CAT_ID":"53734","MEAN_MOTION":"15.08852928","GP_ID":"231399984","ELEMENT_SET_NO":"999","PERIAPSIS":"538.883","CLASSIFICATION_TYPE":"U"},{"ELEMENT_SET_NO":"999","PERIAPSIS":"538.901","CLASSIFICATION_TYPE":"U","MEAN_MOTION":"15.08834097","GP_ID":"231430565","NORAD_CAT_ID":"53735","RA_OF_ASC_NODE":"239.5245","DECAY_DATE":null,"BSTAR":"0.00015782000000","MEAN_ANOMALY":"268.9956","FILE":"3903413","MEAN_MOTION_DDOT":"0.0000000000000","MEAN_ELEMENT_THEORY":"SGP4","TLE_LINE1":"1 53735U 22107AM  23127.61916457  .00002224  00000-0  15782-3 0  9995","CENTER_NAME":"EARTH","COUNTRY_CODE":"US","INCLINATION":"53.2152","OBJECT_ID":"2022-107AM","OBJECT_NAME":"STARLINK-4618","PERIOD":"95.438","APOAPSIS":"540.626","ECCENTRICITY":"0.00012470","ARG_OF_PERICENTER":"91.1179","TLE_LINE2":"2 53735  53.2152 239.5245 0001247  91.1179 268.9956 15.08834097 37881","REF_FRAME":"TEME","OBJECT_TYPE":"PAYLOAD","LAUNCH_DATE":"2022-09-05","REV_AT_EPOCH":"3788","MEAN_MOTION_DOT":"0.00002224","RCS_SIZE":"LARGE","SEMIMAJOR_AXIS":"6917.898","EPHEMERIS_TYPE":"0","TIME_SYSTEM":"UTC","EPOCH":"2023-05-07T14:51:35.818848","SITE":"AFETR"},{"RCS_SIZE":"LARGE","MEAN_MOTION_DOT":"0.00002442","REV_AT_EPOCH":"3800","EPOCH":"2023-05-07T12:29:53.766816","SITE":"AFETR","TIME_SYSTEM":"UTC","EPHEMERIS_TYPE":"0","SEMIMAJOR_AXIS":"6917.858","TLE_LINE2":"2 53736  53.2142 230.3445 0001072  79.2494 280.8618 15.08847399 38007","ARG_OF_PERICENTER":"79.2494","APOAPSIS":"540.464","ECCENTRICITY":"0.00010720","COUNTRY_CODE":"US","OBJECT_NAME":"STARLINK-4652","INCLINATION":"53.2142","OBJECT_ID":"2022-107AN","PERIOD":"95.437","LAUNCH_DATE":"2022-09-05","OBJECT_TYPE":"PAYLOAD","REF_FRAME":"TEME","MEAN_ELEMENT_THEORY":"SGP4","MEAN_MOTION_DDOT":"0.0000000000000","FILE":"3903215","MEAN_ANOMALY":"280.8618","TLE_LINE1":"1 53736U 22107AN  23127.52076119  .00002442  00000-0  17142-3 0  9992","CENTER_NAME":"EARTH","NORAD_CAT_ID":"53736","MEAN_MOTION":"15.08847399","GP_ID":"231398983","ELEMENT_SET_NO":"999","PERIAPSIS":"538.981","CLASSIFICATION_TYPE":"U","DECAY_DATE":null,"BSTAR":"0.00017142000000","RA_OF_ASC_NODE":"230.3445"},{"MEAN_MOTION_DOT":"-0.00000893","RCS_SIZE":"LARGE","REV_AT_EPOCH":"3803","EPOCH":"2023-05-07T14:56:53.960064","SITE":"AFETR","TIME_SYSTEM":"UTC","EPHEMERIS_TYPE":"0","SEMIMAJOR_AXIS":"6917.875","TLE_LINE2":"2 53737  53.2164 239.5501 0000777  49.0393 311.0666 15.08841884 38036","ARG_OF_PERICENTER":"49.0393","ECCENTRICITY":"0.00007770","APOAPSIS":"540.277","INCLINATION":"53.2164","COUNTRY_CODE":"US","OBJECT_NAME":"STARLINK-4646","OBJECT_ID":"2022-107AP","PERIOD":"95.437","LAUNCH_DATE":"2022-09-05","OBJECT_TYPE":"PAYLOAD","REF_FRAME":"TEME","MEAN_ELEMENT_THEORY":"SGP4","MEAN_MOTION_DDOT":"0.0000000000000","FILE":"3903413","MEAN_ANOMALY":"311.0666","CENTER_NAME":"EARTH","TLE_LINE1":"1 53737U 22107AP  23127.62284676 -.00000893  00000-0 -38069-4 0  9995","NORAD_CAT_ID":"53737","MEAN_MOTION":"15.08841884","GP_ID":"231430064","ELEMENT_SET_NO":"999","PERIAPSIS":"539.202","CLASSIFICATION_TYPE":"U","BSTAR":"-0.00003806900000","DECAY_DATE":null,"RA_OF_ASC_NODE":"239.5501"},{"MEAN_MOTION":"15.08838294","GP_ID":"231399485","ELEMENT_SET_NO":"999","CLASSIFICATION_TYPE":"U","PERIAPSIS":"539.338","NORAD_CAT_ID":"53738","RA_OF_ASC_NODE":"239.7998","DECAY_DATE":null,"BSTAR":"-0.00005190300000","FILE":"3903215","MEAN_ANOMALY":"280.4799","MEAN_ELEMENT_THEORY":"SGP4","MEAN_MOTION_DDOT":"0.0000000000000","CENTER_NAME":"EARTH","TLE_LINE1":"1 53738U 22107AQ  23127.54923469 -.00001113  00000-0 -51903-4 0  9995","APOAPSIS":"540.163","ECCENTRICITY":"0.00005960","COUNTRY_CODE":"US","OBJECT_ID":"2022-107AQ","INCLINATION":"53.2147","OBJECT_NAME":"STARLINK-4662","PERIOD":"95.438","TLE_LINE2":"2 53738  53.2147 239.7998 0000596  79.6260 280.4799 15.08838294 37879","ARG_OF_PERICENTER":"79.6260","OBJECT_TYPE":"PAYLOAD","REF_FRAME":"TEME","LAUNCH_DATE":"2022-09-05","REV_AT_EPOCH":"3787","RCS_SIZE":"LARGE","MEAN_MOTION_DOT":"-0.00001113","EPHEMERIS_TYPE":"0","SEMIMAJOR_AXIS":"6917.886","EPOCH":"2023-05-07T13:10:53.877216","SITE":"AFETR","TIME_SYSTEM":"UTC"},{"RA_OF_ASC_NODE":"239.5708","DECAY_DATE":null,"BSTAR":"0.00044147000000","CLASSIFICATION_TYPE":"U","PERIAPSIS":"539.060","ELEMENT_SET_NO":"999","GP_ID":"231431065","MEAN_MOTION":"15.08849519","NORAD_CAT_ID":"53740","CENTER_NAME":"EARTH","TLE_LINE1":"1 53740U 22107AS  23127.62652630  .00006747  00000-0  44147-3 0  9993","MEAN_ANOMALY":"267.1606","FILE":"3903413","MEAN_MOTION_DDOT":"0.0000000000000","MEAN_ELEMENT_THEORY":"SGP4","REF_FRAME":"TEME","OBJECT_TYPE":"PAYLOAD","LAUNCH_DATE":"2022-09-05","PERIOD":"95.437","INCLINATION":"53.2151","COUNTRY_CODE":"US","OBJECT_NAME":"STARLINK-4607","OBJECT_ID":"2022-107AS","ECCENTRICITY":"0.00009480","APOAPSIS":"540.372","ARG_OF_PERICENTER":"92.9495","TLE_LINE2":"2 53740  53.2151 239.5708 0000948  92.9495 267.1606 15.08849519 38033","SEMIMAJOR_AXIS":"6917.851","EPHEMERIS_TYPE":"0","TIME_SYSTEM":"UTC","SITE":"AFETR","EPOCH":"2023-05-07T15:02:11.872320","REV_AT_EPOCH":"3803","RCS_SIZE":"LARGE","MEAN_MOTION_DOT":"0.00006747"},{"TIME_SYSTEM":"UTC","SITE":"AFETR","EPOCH":"2023-05-07T12:55:42.666528","SEMIMAJOR_AXIS":"6917.872","EPHEMERIS_TYPE":"0","RCS_SIZE":"LARGE","MEAN_MOTION_DOT":"0.00000861","REV_AT_EPOCH":"3823","LAUNCH_DATE":"2022-09-05","REF_FRAME":"TEME","OBJECT_TYPE":"PAYLOAD","ARG_OF_PERICENTER":"84.5657","TLE_LINE2":"2 53741  53.2160 224.8440 0000927  84.5657 275.5441 15.08842617 38232","PERIOD":"95.437","COUNTRY_CODE":"US","INCLINATION":"53.2160","OBJECT_ID":"2022-107AT","OBJECT_NAME":"STARLINK-4614","ECCENTRICITY":"0.00009270","APOAPSIS":"540.379","TLE_LINE1":"1 53741U 22107AT  23127.53868827  .00000861  00000-0  72181-4 0  9992","CENTER_NAME":"EARTH","MEAN_MOTION_DDOT":"0.0000000000000","MEAN_ELEMENT_THEORY":"SGP4","MEAN_ANOMALY":"275.5441","FILE":"3903215","DECAY_DATE":null,"BSTAR":"0.00007218100000","RA_OF_ASC_NODE":"224.8440","NORAD_CAT_ID":"53741","PERIAPSIS":"539.096","CLASSIFICATION_TYPE":"U","ELEMENT_SET_NO":"999","GP_ID":"231398484","MEAN_MOTION":"15.08842617"},{"LAUNCH_DATE":"2022-09-05","OBJECT_TYPE":"PAYLOAD","REF_FRAME":"TEME","TLE_LINE2":"2 53742  53.2157 239.5933 0001193  92.4541 267.6588 15.08839481 38032","ARG_OF_PERICENTER":"92.4541","ECCENTRICITY":"0.00011930","APOAPSIS":"540.572","PERIOD":"95.438","COUNTRY_CODE":"US","INCLINATION":"53.2157","OBJECT_NAME":"STARLINK-4637","OBJECT_ID":"2022-107AU","SITE":"AFETR","EPOCH":"2023-05-07T15:07:31.173888","TIME_SYSTEM":"UTC","EPHEMERIS_TYPE":"0","SEMIMAJOR_AXIS":"6917.882","MEAN_MOTION_DOT":"0.00000183","RCS_SIZE":"LARGE","REV_AT_EPOCH":"3803","BSTAR":"0.00002960200000","DECAY_DATE":null,"RA_OF_ASC_NODE":"239.5933","NORAD_CAT_ID":"53742","GP_ID":"231429565","MEAN_MOTION":"15.08839481","PERIAPSIS":"538.922","CLASSIFICATION_TYPE":"U","ELEMENT_SET_NO":"999","TLE_LINE1":"1 53742U 22107AU  23127.63022192  .00000183  00000-0  29602-4 0  9998","CENTER_NAME":"EARTH","MEAN_ELEMENT_THEORY":"SGP4","MEAN_MOTION_DDOT":"0.0000000000000","FILE":"3903413","MEAN_ANOMALY":"267.6588"},{"CENTER_NAME":"EARTH","TLE_LINE1":"1 53743U 22107AV  23127.57871853  .00021838  00000-0  13861-2 0  9996","MEAN_MOTION_DDOT":"0.0000000000000","MEAN_ELEMENT_THEORY":"SGP4","MEAN_ANOMALY":"265.8014","FILE":"3903215","BSTAR":"0.00138610000000","DECAY_DATE":null,"RA_OF_ASC_NODE":"239.9799","NORAD_CAT_ID":"53743","CLASSIFICATION_TYPE":"U","PERIAPSIS":"539.293","ELEMENT_SET_NO":"999","GP_ID":"231399985","MEAN_MOTION":"15.08836282","TIME_SYSTEM":"UTC","SITE":"AFETR","EPOCH":"2023-05-07T13:53:21.280992","SEMIMAJOR_AXIS":"6917.892","EPHEMERIS_TYPE":"0","MEAN_MOTION_DOT":"0.00021838","RCS_SIZE":"LARGE","REV_AT_EPOCH":"3802","LAUNCH_DATE":"2022-09-05","REF_FRAME":"TEME","OBJECT_TYPE":"PAYLOAD","ARG_OF_PERICENTER":"94.3054","TLE_LINE2":"2 53743  53.2148 239.9799 0000670  94.3054 265.8014 15.08836282 38025","PERIOD":"95.438","COUNTRY_CODE":"US","OBJECT_ID":"2022-107AV","INCLINATION":"53.2148","OBJECT_NAME":"STARLINK-4645","ECCENTRICITY":"0.00006700","APOAPSIS":"540.220"},{"OBJECT_ID":"2022-107AW","COUNTRY_CODE":"US","INCLINATION":"53.2160","OBJECT_NAME":"STARLINK-4670","PERIOD":"95.437","ECCENTRICITY":"0.00013390","APOAPSIS":"540.668","ARG_OF_PERICENTER":"109.1535","TLE_LINE2":"2 53744  53.2160 239.6189 0001339 109.1535 250.9602 15.08841176 38039","REF_FRAME":"TEME","OBJECT_TYPE":"PAYLOAD","LAUNCH_DATE":"2022-09-05","REV_AT_EPOCH":"3803","RCS_SIZE":"LARGE","MEAN_MOTION_DOT":"0.00001169","SEMIMAJOR_AXIS":"6917.877","EPHEMERIS_TYPE":"0","TIME_SYSTEM":"UTC","EPOCH":"2023-05-07T15:14:12.066432","SITE":"AFETR","ELEMENT_SET_NO":"999","PERIAPSIS":"538.815","CLASSIFICATION_TYPE":"U","MEAN_MOTION":"15.08841176","GP_ID":"231430566","NORAD_CAT_ID":"53744","RA_OF_ASC_NODE":"239.6189","BSTAR":"0.00009152900000","DECAY_DATE":null,"MEAN_ANOMALY":"250.9602","FILE":"3903413","MEAN_MOTION_DDOT":"0.0000000000000","MEAN_ELEMENT_THEORY":"SGP4","CENTER_NAME":"EARTH","TLE_LINE1":"1 53744U 22107AW  23127.63486188  .00001169  00000-0  91529-4 0  9991"}];
